ONEWEB-0531             
1 54146U 22138AK  24276.43593318  .00000143  00000+0  31858-3 0  9998
2 54146  87.9270  38.3042 0002054  69.9610 290.1745 13.20770063 97101
ONEWEB-0535             
1 54147U 22138AL  24276.47180136  .00000101  00000+0  22100-3 0  9997
2 54147  87.9115  68.8022 0001713  84.4818 275.6510 13.19724176 94702
ONEWEB-0536             
1 54148U 22138AM  24276.42328818  .00000142  00000+0  31697-3 0  9990
2 54148  87.9271  38.3553 0001495  64.7981 295.3307 13.20769786 97092
ONEWEB-0527             
1 54642U 22166A   24276.18994818  .00000158  00000+0  35203-3 0  9996
2 54642  87.9374   8.0582 0001920  99.0030 261.1322 13.21825658 89237
ONEWEB-0528             
1 54643U 22166B   24276.34765101  .00000173  00000+0  38835-3 0  9997
2 54643  87.9379   8.0173 0002000 103.7023 256.4333 13.21827580 89262
ONEWEB-0539             
1 54644U 22166C   24276.30822601  .00000250  00000+0  57453-3 0  9996
2 54644  87.9375   8.0283 0001775 105.2753 254.8577 13.21826214 89250
ONEWEB-0540             
1 54645U 22166D   24276.30270069  .00000127  00000+0  27606-3 0  9992
2 54645  87.9370   8.0416 0001748 107.0268 253.1058 13.21826743 89247
ONEWEB-0542             
1 54646U 22166E   24276.31768223  .00000168  00000+0  37419-3 0  9996
2 54646  87.9375   8.0256 0001446 102.3072 257.8224 13.21830212 89254
